{"leisure/sports_centre/xgolf-8a88af":{"name":"X Golf","locationSet":{"include":["us-al","us-co","us-ga","us-il","us-in","us-ks","us-ma","us-me","us-mi","us-mn","us-mo","us-nd","us-ne","us-ny","us-oh","us-or","us-pa","us-ri","us-sc","us-sd","us-ut","us-va","us-wa","us-wi"]},"geometry":["point","area"],"matchScore":2,"terms":["x golf"],"fields":["name","brand","{leisure/sports_centre}"],"tags":{"brand:wikidata":"Q111585369","leisure":"sports_centre"},"addTags":{"brand":"X Golf","brand:wikidata":"Q111585369","indoor":"yes","leisure":"sports_centre","name":"X Golf","sport":"golf"}},"shop/cannabis/curaleaf-4b9e8a":{"name":"Curaleaf","locationSet":{"include":["us-az","us-ct","us-fl","us-il","us-ma","us-md","us-me","us-mi","us-nd","us-nj","us-nv","us-ny","us-oh","us-or","us-pa","us-ut","us-vt"]},"geometry":["point","area"],"matchScore":2,"terms":["curaleaf"],"tags":{"brand:wikidata":"Q85754829","shop":"cannabis"},"addTags":{"brand":"Curaleaf","brand:wikidata":"Q85754829","name":"Curaleaf","shop":"cannabis"}},"shop/trade/americanroofingsupply-930674":{"name":"American Roofing Supply","locationSet":{"include":["us-az","us-co","us-id","us-il","us-in","us-mn","us-nd","us-ne","us-sd","us-wi"]},"geometry":["point","area"],"matchScore":2,"terms":["american roofing supply"],"tags":{"brand:wikidata":"Q114515313","shop":"trade"},"addTags":{"brand":"American Roofing Supply","brand:wikidata":"Q114515313","name":"American Roofing Supply","shop":"trade","trade":"roofing"}},"shop/trade/butlercat-39aa46":{"name":"Butler CAT","locationSet":{"include":["us-nd","us-ne","us-sd"]},"geometry":["point","area"],"matchScore":2,"terms":["butler cat"],"tags":{"brand:wikidata":"Q109619534","shop":"trade"},"addTags":{"brand":"Butler CAT","brand:wikidata":"Q109619534","name":"Butler CAT","shop":"trade","trade":"construction_equipment"}},"shop/trade/tractorandequipmentco-10c19f":{"name":"Tractor & Equipment Co.","locationSet":{"include":["us-mt","us-nd","us-wy"]},"geometry":["point","area"],"matchScore":2,"terms":["tractor & equipment co."],"tags":{"brand:wikidata":"Q115486509","shop":"trade"},"addTags":{"brand":"Tractor & Equipment Co.","brand:wikidata":"Q115486509","name":"Tractor & Equipment Co.","shop":"trade","trade":"construction_equipment"}},"amenity/police/northdakotahighwaypatrol-be4496":{"name":"North Dakota Highway Patrol","locationSet":{"include":["us-nd"]},"geometry":["point","area"],"matchScore":2,"terms":["ndhp","north dakota highway patrol"],"tags":{"amenity":"police","operator:wikidata":"Q7055020"},"addTags":{"amenity":"police","operator":"North Dakota Highway Patrol","operator:short":"NDHP","operator:wikidata":"Q7055020"}},"amenity/school/bismarckpublicschools-d1732d":{"name":"Bismarck Public Schools","locationSet":{"include":["us-nd"]},"geometry":["area","point"],"matchScore":2,"terms":["bismarck public schools","bps"],"tags":{"amenity":"school","operator:wikidata":"Q4918310"},"addTags":{"amenity":"school","operator":"Bismarck Public Schools","operator:short":"BPS","operator:type":"public","operator:wikidata":"Q4918310"}},"amenity/school/fargopublicschools-d1732d":{"name":"Fargo Public Schools","locationSet":{"include":["us-nd"]},"geometry":["area","point"],"matchScore":2,"terms":["fargo public schools","fps"],"tags":{"amenity":"school","operator:wikidata":"Q5435117"},"addTags":{"amenity":"school","operator":"Fargo Public Schools","operator:short":"FPS","operator:type":"public","operator:wikidata":"Q5435117"}},"leisure/nature_reserve/fargoparkdistrict-f7d259":{"name":"Fargo Park District","locationSet":{"include":["us-nd"]},"geometry":["area","point"],"matchScore":2,"terms":["fargo park district"],"tags":{"leisure":"nature_reserve","operator:wikidata":"Q110064081"},"addTags":{"leisure":"nature_reserve","operator":"Fargo Park District","operator:type":"public","operator:wikidata":"Q110064081"}},"leisure/nature_reserve/northdakotaparksandrecreationdepartment-f7d259":{"name":"North Dakota Parks & Recreation","locationSet":{"include":["us-nd"]},"geometry":["area","point"],"matchScore":2,"terms":["north dakota parks & rec","north dakota parks and recreation department","north dakota state parks"],"tags":{"leisure":"nature_reserve","operator:wikidata":"Q60774299"},"addTags":{"leisure":"nature_reserve","operator":"North Dakota Parks and Recreation Department","operator:type":"public","operator:wikidata":"Q60774299"}},"leisure/nature_reserve/westfargoparkdistrict-f7d259":{"name":"West Fargo Park District","locationSet":{"include":["us-nd"]},"geometry":["area","point"],"matchScore":2,"terms":["west fargo park district","wfpd"],"tags":{"leisure":"nature_reserve","operator:wikidata":"Q123583679"},"addTags":{"leisure":"nature_reserve","operator":"West Fargo Park District","operator:short":"WFPD","operator:type":"public","operator:wikidata":"Q123583679"}},"leisure/park/fargoparkdistrict-20a56e":{"name":"Fargo Park District","locationSet":{"include":["us-nd"]},"geometry":["area","point"],"matchScore":2,"terms":["fargo park district"],"tags":{"leisure":"park","operator:wikidata":"Q110064081"},"addTags":{"leisure":"park","operator":"Fargo Park District","operator:type":"public","operator:wikidata":"Q110064081"}},"leisure/park/northdakotaparksandrecreationdepartment-20a56e":{"name":"North Dakota Parks & Recreation","locationSet":{"include":["us-nd"]},"geometry":["area","point"],"matchScore":2,"terms":["north dakota parks & rec","north dakota parks and recreation department","north dakota state parks"],"tags":{"leisure":"park","operator:wikidata":"Q60774299"},"addTags":{"leisure":"park","operator":"North Dakota Parks and Recreation Department","operator:type":"public","operator:wikidata":"Q60774299"}},"leisure/park/westfargoparkdistrict-20a56e":{"name":"West Fargo Park District","locationSet":{"include":["us-nd"]},"geometry":["area","point"],"matchScore":2,"terms":["west fargo park district","wfpd"],"tags":{"leisure":"park","operator:wikidata":"Q123583679"},"addTags":{"leisure":"park","operator":"West Fargo Park District","operator:short":"WFPD","operator:type":"public","operator:wikidata":"Q123583679"}},"public_transport/platform/bus_point/matbus-428833":{"name":"MATBUS","locationSet":{"include":["us-mn","us-nd"]},"geometry":["point","vertex"],"matchScore":2,"terms":["matbus"],"reference":{"key":"public_transport","value":"platform"},"tags":{"bus":"yes","network:wikidata":"Q5435113","public_transport":"platform"},"addTags":{"bus":"yes","highway":"bus_stop","network":"MATBUS","network:wikidata":"Q5435113","public_transport":"platform"}},"type/route/bus/matbus-8bb3d6":{"name":"MATBUS","locationSet":{"include":["us-mn","us-nd"]},"geometry":["relation"],"matchScore":2,"terms":["matbus"],"reference":{"key":"route","value":"bus"},"tags":{"network:wikidata":"Q5435113","route":"bus","type":"route"},"addTags":{"network":"MATBUS","network:wikidata":"Q5435113","route":"bus","type":"route"}}}